[{"OBJECT_NAME":"AQUA","OBJECT_ID":"2002-022A","EPOCH":"2026-03-09T23:03:04.467168","MEAN_MOTION":14.6197796,"ECCENTRICITY":5.597e-5,"INCLINATION":98.4175,"RA_OF_ASC_NODE":36.3303,"ARG_OF_PERICENTER":81.6608,"MEAN_ANOMALY":350.7427,"EPHEMERIS_TYPE":0,"CLASSIFICATION_TYPE":"U","NORAD_CAT_ID":27424,"ELEMENT_SET_NO":999,"REV_AT_EPOCH":26877,"BSTAR":0.00028652441,"MEAN_MOTION_DOT":1.387e-5,"MEAN_MOTION_DDOT":0},{"OBJECT_NAME":"THOR ABLESTAR DEB","OBJECT_ID":"1961-015FX","EPOCH":"2026-03-09T17:13:32.517408","MEAN_MOTION":14.64668956,"ECCENTRICITY":0.00088136,"INCLINATION":67.8037,"RA_OF_ASC_NODE":224.4718,"ARG_OF_PERICENTER":323.6849,"MEAN_ANOMALY":36.3677,"EPHEMERIS_TYPE":0,"CLASSIFICATION_TYPE":"U","NORAD_CAT_ID":538,"ELEMENT_SET_NO":999,"REV_AT_EPOCH":34903,"BSTAR":0.001233061,"MEAN_MOTION_DOT":6.49e-5,"MEAN_MOTION_DDOT":0}]
